{"type": "FeatureCollection", "features": [ {"type": "Feature", "properties": {"norad_id": 33867, "name": "IRIDIUM 33 DEB", "group": "iridium-33-debris", "lat": 61.71715945890356, "lon": 159.293921795176, "alt_km": 303.75228146786503, "timestamp": "2025-12-20T09:36:02.033458+00:00", "meta": {"OBJECT_NAME": "IRIDIUM 33 DEB", "OBJECT_ID": "1997-051AL", "EPOCH": "2025-12-20T00:00:24.546240", "MEAN_MOTION": 15.83320916, "ECCENTRICITY": 0.0013572, "INCLINATION": 86.3644, "RA_OF_ASC_NODE": 346.2932, "ARG_OF_PERICENTER": 95.1198, "MEAN_ANOMALY": 265.1629, "EPHEMERIS_TYPE": 0, "CLASSIFICATION_TYPE": "U", "NORAD_CAT_ID": 33867, "ELEMENT_SET_NO": 999, "REV_AT_EPOCH": 89625, "BSTAR": 0.0064207, "MEAN_MOTION_DOT": 0.01574163, "MEAN_MOTION_DDOT": 0}, "tle": {"line1": "1 33867U 97051AL  25354.00028410  .01574163  00000+0  64207-2 0  9990", "line2": "2 33867  86.3644 346.2932 0013572  95.1198 265.1629 15.83320916896259"}}, "geometry": {"type": "Point", "coordinates": [159.293921795176, 61.71715945890356]}}, {"type": "Feature", "properties": {"norad_id": 33870, "name": "IRIDIUM 33 DEB", "group": "iridium-33-debris", "lat": -33.88549661253744, "lon": -122.5817431513281, "alt_km": 737.5217830330257, "timestamp": "2025-12-20T09:36:02.033477+00:00", "meta": {"OBJECT_NAME": "IRIDIUM 33 DEB", "OBJECT_ID": "1997-051AP", "EPOCH": "2025-12-20T03:53:26.545056", "MEAN_MOTION": 14.45886051, "ECCENTRICITY": 0.0022249, "INCLINATION": 86.3743, "RA_OF_ASC_NODE": 55.0796, "ARG_OF_PERICENTER": 154.3397, "MEAN_ANOMALY": 261.7163, "EPHEMERIS_TYPE": 0, "CLASSIFICATION_TYPE": "U", "NORAD_CAT_ID": 33870, "ELEMENT_SET_NO": 999, "REV_AT_EPOCH": 88244, "BSTAR": 0.00046885, "MEAN_MOTION_DOT": 1.69e-05, "MEAN_MOTION_DDOT": 0}, "tle": {"line1": "1 33870U 97051AP  25354.16211279  .00001690  00000+0  46885-3 0  9990", "line2": "2 33870  86.3743  55.0796 0022249 154.3397 261.7163 14.45886051882441"}}, "geometry": {"type": "Point", "coordinates": [-122.5817431513281, -33.88549661253744]}}, {"type": "Feature", "properties": {"norad_id": 33881, "name": "IRIDIUM 33 DEB", "group": "iridium-33-debris", "lat": 17.85869448024613, "lon": 104.57957466276788, "alt_km": 733.1565671103963, "timestamp": "2025-12-20T09:36:02.033489+00:00", "meta": {"OBJECT_NAME": "IRIDIUM 33 DEB", "OBJECT_ID": "1997-051BA", "EPOCH": "2025-12-18T18:38:37.341312", "MEAN_MOTION": 14.56678227, "ECCENTRICITY": 0.00614608, "INCLINATION": 86.3861, "RA_OF_ASC_NODE": 104.1184, "ARG_OF_PERICENTER": 155.2089, "MEAN_ANOMALY": 356.6087, "EPHEMERIS_TYPE": 0, "CLASSIFICATION_TYPE": "U", "NORAD_CAT_ID": 33881, "ELEMENT_SET_NO": 999, "REV_AT_EPOCH": 87588, "BSTAR": 0.0015458281, "MEAN_MOTION_DOT": 7.103e-05, "MEAN_MOTION_DDOT": 0}, "tle": {"line1": "1 33881U 97051BA  25352.77682108  .00007103  00000+0  15458-2 0  9996", "line2": "2 33881  86.3861 104.1184 0061460 155.2089 356.6087 14.56678227875882"}}, "geometry": {"type": "Point", "coordinates": [104.57957466276788, 17.85869448024613]}}, {"type": "Feature", "properties": {"norad_id": 33884, "name": "IRIDIUM 33 DEB", "group": "iridium-33-debris", "lat": 0.3569842880678081, "lon": -173.6624359143821, "alt_km": 642.7520800413049, "timestamp": "2025-12-20T09:36:02.033500+00:00", "meta": {"OBJECT_NAME": "IRIDIUM 33 DEB", "OBJECT_ID": "1997-051BD", "EPOCH": "2025-12-20T00:47:16.842912", "MEAN_MOTION": 14.77561987, "ECCENTRICITY": 0.0009184, "INCLINATION": 86.369, "RA_OF_ASC_NODE": 6.526, "ARG_OF_PERICENTER": 295.3474, "MEAN_ANOMALY": 92.3856, "EPHEMERIS_TYPE": 0, "CLASSIFICATION_TYPE": "U", "NORAD_CAT_ID": 33884, "ELEMENT_SET_NO": 999, "REV_AT_EPOCH": 88955, "BSTAR": 0.00092659, "MEAN_MOTION_DOT": 6.644e-05, "MEAN_MOTION_DDOT": 0}, "tle": {"line1": "1 33884U 97051BD  25354.03283383  .00006644  00000+0  92659-3 0  9990", "line2": "2 33884  86.3690   6.5260 0009184 295.3474  92.3856 14.77561987889558"}}, "geometry": {"type": "Point", "coordinates": [-173.6624359143821, 0.3569842880678081]}}, {"type": "Feature", "properties": {"norad_id": 33886, "name": "IRIDIUM 33 DEB", "group": "iridium-33-debris", "lat": 43.78935383472865, "lon": 67.48140114680734, "alt_km": 777.0662744362498, "timestamp": "2025-12-20T09:36:02.033513+00:00", "meta": {"OBJECT_NAME": "IRIDIUM 33 DEB", "OBJECT_ID": "1997-051BF", "EPOCH": "2025-12-20T04:30:59.628960", "MEAN_MOTION": 14.36060026, "ECCENTRICITY": 0.0012941, "INCLINATION": 86.3824, "RA_OF_ASC_NODE": 64.0937, "ARG_OF_PERICENTER": 214.8028, "MEAN_ANOMALY": 174.7554, "EPHEMERIS_TYPE": 0, "CLASSIFICATION_TYPE": "U", "NORAD_CAT_ID": 33886, "ELEMENT_SET_NO": 999, "REV_AT_EPOCH": 88159, "BSTAR": 0.00013723, "MEAN_MOTION_DOT": 4.19e-06, "MEAN_MOTION_DDOT": 0}, "tle": {"line1": "1 33886U 97051BF  25354.18819015  .00000419  00000+0  13723-3 0  9994", "line2": "2 33886  86.3824  64.0937 0012941 214.8028 174.7554 14.36060026881594"}}, "geometry": {"type": "Point", "coordinates": [67.48140114680734, 43.78935383472865]}}, {"type": "Feature", "properties": {"norad_id": 33887, "name": "IRIDIUM 33 DEB", "group": "iridium-33-debris", "lat": 12.302153965783752, "lon": 0.8985775716914303, "alt_km": 772.7035141425467, "timestamp": "2025-12-20T09:36:02.033525+00:00", "meta": {"OBJECT_NAME": "IRIDIUM 33 DEB", "OBJECT_ID": "1997-051BG", "EPOCH": "2025-12-20T01:28:45.668352", "MEAN_MOTION": 14.37227129, "ECCENTRICITY": 0.0005199, "INCLINATION": 86.3041, "RA_OF_ASC_NODE": 0.2367, "ARG_OF_PERICENTER": 196.9799, "MEAN_ANOMALY": 225.7634, "EPHEMERIS_TYPE": 0, "CLASSIFICATION_TYPE": "U", "NORAD_CAT_ID": 33887, "ELEMENT_SET_NO": 999, "REV_AT_EPOCH": 88270, "BSTAR": 0.00010697, "MEAN_MOTION_DOT": 3.38e-06, "MEAN_MOTION_DDOT": 0}, "tle": {"line1": "1 33887U 97051BG  25354.06163968  .00000338  00000+0  10697-3 0  9998", "line2": "2 33887  86.3041   0.2367 0005199 196.9799 225.7634 14.37227129882707"}}, "geometry": {"type": "Point", "coordinates": [0.8985775716914303, 12.302153965783752]}}, {"type": "Feature", "properties": {"norad_id": 33953, "name": "IRIDIUM 33 DEB", "group": "iridium-33-debris", "lat": 7.058952360506181, "lon": 50.90354119636759, "alt_km": 706.2977979883744, "timestamp": "2025-12-20T09:36:02.033536+00:00", "meta": {"OBJECT_NAME": "IRIDIUM 33 DEB", "OBJECT_ID": "1997-051BN", "EPOCH": "2025-12-20T03:06:09.003168", "MEAN_MOTION": 14.55388304, "ECCENTRICITY": 0.0017954, "INCLINATION": 86.3841, "RA_OF_ASC_NODE": 50.5724, "ARG_OF_PERICENTER": 80.2831, "MEAN_ANOMALY": 309.4365, "EPHEMERIS_TYPE": 0, "CLASSIFICATION_TYPE": "U", "NORAD_CAT_ID": 33953, "ELEMENT_SET_NO": 999, "REV_AT_EPOCH": 88411, "BSTAR": 0.00068976, "MEAN_MOTION_DOT": 3.021e-05, "MEAN_MOTION_DDOT": 0}, "tle": {"line1": "1 33953U 97051BN  25354.12927087  .00003021  00000+0  68976-3 0  9994", "line2": "2 33953  86.3841  50.5724 0017954  80.2831 309.4365 14.55388304884119"}}, "geometry": {"type": "Point", "coordinates": [50.90354119636759, 7.058952360506181]}}, {"type": "Feature", "properties": {"norad_id": 33960, "name": "IRIDIUM 33 DEB", "group": "iridium-33-debris", "lat": -80.82731233109459, "lon": -98.0363176921282, "alt_km": 622.5457304951133, "timestamp": "2025-12-20T09:36:02.033547+00:00", "meta": {"OBJECT_NAME": "IRIDIUM 33 DEB", "OBJECT_ID": "1997-051BV", "EPOCH": "2025-12-18T21:04:17.238720", "MEAN_MOTION": 14.85489781, "ECCENTRICITY": 0.00074649, "INCLINATION": 86.254, "RA_OF_ASC_NODE": 286.6192, "ARG_OF_PERICENTER": 52.1098, "MEAN_ANOMALY": 12.0352, "EPHEMERIS_TYPE": 0, "CLASSIFICATION_TYPE": "U", "NORAD_CAT_ID": 33960, "ELEMENT_SET_NO": 999, "REV_AT_EPOCH": 88958, "BSTAR": 0.0022083229, "MEAN_MOTION_DOT": 0.0001912, "MEAN_MOTION_DDOT": 0}, "tle": {"line1": "1 33960U 97051BV  25352.87797730  .00019120  00000+0  22083-2 0  9997", "line2": "2 33960  86.2540 286.6192 0007464  52.1098  12.0352 14.85489781889584"}}, "geometry": {"type": "Point", "coordinates": [-98.0363176921282, -80.82731233109459]}}, {"type": "Feature", "properties": {"norad_id": 33966, "name": "IRIDIUM 33 DEB", "group": "iridium-33-debris", "lat": -25.04085440370203, "lon": 41.050330936623716, "alt_km": 738.3653596699414, "timestamp": "2025-12-20T09:36:02.033557+00:00", "meta": {"OBJECT_NAME": "IRIDIUM 33 DEB", "OBJECT_ID": "1997-051CB", "EPOCH": "2025-12-20T03:11:01.811904", "MEAN_MOTION": 14.49620401, "ECCENTRICITY": 0.0008251, "INCLINATION": 86.3914, "RA_OF_ASC_NODE": 42.8545, "ARG_OF_PERICENTER": 164.7802, "MEAN_ANOMALY": 215.846, "EPHEMERIS_TYPE": 0, "CLASSIFICATION_TYPE": "U", "NORAD_CAT_ID": 33966, "ELEMENT_SET_NO": 999, "REV_AT_EPOCH": 88549, "BSTAR": 0.00034833, "MEAN_MOTION_DOT": 1.358e-05, "MEAN_MOTION_DDOT": 0}, "tle": {"line1": "1 33966U 97051CB  25354.13265986  .00001358  00000+0  34833-3 0  9998", "line2": "2 33966  86.3914  42.8545 0008251 164.7802 215.8460 14.49620401885493"}}, "geometry": {"type": "Point", "coordinates": [41.050330936623716, -25.04085440370203]}}, {"type": "Feature", "properties": {"norad_id": 34071, "name": "IRIDIUM 33 DEB", "group": "iridium-33-debris", "lat": 37.617651332893125, "lon": 17.32207890148902, "alt_km": 720.0062838175054, "timestamp": "2025-12-20T09:36:02.033568+00:00", "meta": {"OBJECT_NAME": "IRIDIUM 33 DEB", "OBJECT_ID": "1997-051CE", "EPOCH": "2025-12-20T02:48:00.186912", "MEAN_MOTION": 14.49494127, "ECCENTRICITY": 0.0009945, "INCLINATION": 86.3449, "RA_OF_ASC_NODE": 14.6218, "ARG_OF_PERICENTER": 87.7011, "MEAN_ANOMALY": 272.5331, "EPHEMERIS_TYPE": 0, "CLASSIFICATION_TYPE": "U", "NORAD_CAT_ID": 34071, "ELEMENT_SET_NO": 999, "REV_AT_EPOCH": 88441, "BSTAR": 0.00040344, "MEAN_MOTION_DOT": 1.566e-05, "MEAN_MOTION_DDOT": 0}, "tle": {"line1": "1 34071U 97051CE  25354.11666883  .00001566  00000+0  40344-3 0  9990", "line2": "2 34071  86.3449  14.6218 0009945  87.7011 272.5331 14.49494127884417"}}, "geometry": {"type": "Point", "coordinates": [17.32207890148902, 37.617651332893125]}}]}